{
  "afghanistan": {
    "id": "Afghanistan",
    "name": "Afghanistan",
    "nationality": {
      "male": "afghan",
      "female": "afghan"
    },
    "currency": "APN",
    "flag": {
      "emoji": "ðŸ‡¦ðŸ‡«",
      "url": "https://flagpedia.net/data/flags/w20/af.png"
    },
    "phone_code": "+93"
  },
  "albania": {
    "id": "Albanie",
    "name": "Albanie",
    "nationality": {
      "male": "albanais",
      "female": "albanais"
    },
    "currency": "TOUS",
    "flag": {
      "emoji": "ðŸ‡¦ðŸ‡±",
      "url": "https://flagpedia.net/data/flags/w20/al.png"
    },
    "phone_code": "+355"
  },
  "algeria": {
    "id": "AlgÃ©rie",
    "name": "AlgÃ©rie",
    "nationality": {
      "male": "algÃ©rien",
      "female": "algÃ©rien"
    },
    "currency": "DZD",
    "flag": {
      "emoji": "ðŸ‡©ðŸ‡¿",
      "url": "https://flagpedia.net/data/flags/w20/dz.png"
    },
    "phone_code": "+213"
  },
  "andorra": {
    "id": "andorre",
    "name": "Andorre",
    "nationality": {
      "male": "Andorran",
      "female": "Andorran"
    },
    "currency": "EUR",
    "flag": {
      "emoji": "ðŸ‡¦ðŸ‡©",
      "url": "https://flagpedia.net/data/flags/w20/ad.png"
    },
    "phone_code": "+376"
  },
  "angola": {
    "id": "Angola",
    "name": "Angola",
    "nationality": {
      "male": "Angolais",
      "female": "Angolais"
    },
    "currency": "AU",
    "flag": {
      "emoji": "ðŸ‡¦ðŸ‡´",
      "url": "https://flagpedia.net/data/flags/w20/ao.png"
    },
    "phone_code": "+244"
  },
  "antigua_and_barbuda": {
    "id": "Antigua-et-Barbuda",
    "name": "Antigua-et-Barbuda",
    "nationality": {
      "male": "Antiguais",
      "female": "Antiguane"
    },
    "currency": "XCD",
    "flag": {
      "emoji": "ðŸ‡¦ðŸ‡¬",
      "url": "https://flagpedia.net/data/flags/w20/ag.png"
    },
    "phone_code": "+1-268"
  },
  "argentina": {
    "id": "Argentine",
    "name": "Argentine",
    "nationality": {
      "male": "argentin",
      "female": "Argentine"
    },
    "currency": "ARS",
    "flag": {
      "emoji": "ðŸ‡¦ðŸ‡·",
      "url": "https://flagpedia.net/data/flags/w20/ar.png"
    },
    "phone_code": "+54"
  },
  "armenia": {
    "id": "ArmÃ©nie",
    "name": "ArmÃ©nie",
    "nationality": {
      "male": "armÃ©nien",
      "female": "ArmÃ©nie"
    },
    "currency": "OH MON DIEU",
    "flag": {
      "emoji": "ðŸ‡¦ðŸ‡²",
      "url": "https://flagpedia.net/data/flags/w20/am.png"
    },
    "phone_code": "+374"
  },
  "australia": {
    "id": "Australie",
    "name": "Australie",
    "nationality": {
      "male": "australien",
      "female": "australien"
    },
    "currency": "EUR",
    "flag": {
      "emoji": "ðŸ‡¦ðŸ‡º",
      "url": "https://flagpedia.net/data/flags/w20/au.png"
    },
    "phone_code": "+61"
  },
  "austria": {
    "id": "L'Autriche",
    "name": "L'Autriche",
    "nationality": {
      "male": "autrichien",
      "female": "autrichien"
    },
    "currency": "EUR",
    "flag": {
      "emoji": "ðŸ‡¦ðŸ‡¹",
      "url": "https://flagpedia.net/data/flags/w20/at.png"
    },
    "phone_code": "+43"
  },
  "azerbaijan": {
    "id": "AzerbaÃ¯djan",
    "name": "AzerbaÃ¯djan",
    "nationality": {
      "male": "AzÃ©ri",
      "female": "AzÃ©ri"
    },
    "currency": "AZN",
    "flag": {
      "emoji": "ðŸ‡¦ðŸ‡¿",
      "url": "https://flagpedia.net/data/flags/w20/az.png"
    },
    "phone_code": "+994"
  },
  "bahamas": {
    "id": "Bahamas",
    "name": "Bahamas",
    "nationality": {
      "male": "BahamÃ©en",
      "female": "BahamÃ©en"
    },
    "currency": "BSD",
    "flag": {
      "emoji": "ðŸ‡§ðŸ‡¸",
      "url": "https://flagpedia.net/data/flags/w20/bs.png"
    },
    "phone_code": "+1-242"
  },
  "bahrain": {
    "id": "BahreÃ¯n",
    "name": "BahreÃ¯n",
    "nationality": {
      "male": "BahreÃ¯nien",
      "female": "BahreÃ¯nien"
    },
    "currency": "BHD",
    "flag": {
      "emoji": "ðŸ‡§ðŸ‡­",
      "url": "https://flagpedia.net/data/flags/w20/bh.png"
    },
    "phone_code": "+973"
  },
  "bangladesh": {
    "id": "Bangladesh",
    "name": "Bangladesh",
    "nationality": {
      "male": "Bangladais",
      "female": "Bangladais"
    },
    "currency": "BDT",
    "flag": {
      "emoji": "ðŸ‡§ðŸ‡©",
      "url": "https://flagpedia.net/data/flags/w20/bd.png"
    },
    "phone_code": "+880"
  },
  "barbados": {
    "id": "Barbade",
    "name": "Barbade",
    "nationality": {
      "male": "Barbadien",
      "female": "Barbadien"
    },
    "currency": "BBD",
    "flag": {
      "emoji": "ðŸ‡§ðŸ‡§",
      "url": "https://flagpedia.net/data/flags/w20/bb.png"
    },
    "phone_code": "+1-246"
  },
  "belarus": {
    "id": "BiÃ©lorussie",
    "name": "BiÃ©lorussie",
    "nationality": {
      "male": "biÃ©lorusse",
      "female": "biÃ©lorusse"
    },
    "currency": "PAR",
    "flag": {
      "emoji": "ðŸ‡§ðŸ‡¾",
      "url": "https://flagpedia.net/data/flags/w20/by.png"
    },
    "phone_code": "+375"
  },
  "belgium": {
    "id": "Belgique",
    "name": "Belgique",
    "nationality": {
      "male": "Belge",
      "female": "Belge"
    },
    "currency": "EUR",
    "flag": {
      "emoji": "ðŸ‡§ðŸ‡ª",
      "url": "https://flagpedia.net/data/flags/w20/be.png"
    },
    "phone_code": "+32"
  },
  "belize": {
    "id": "BÃ©lize",
    "name": "BÃ©lize",
    "nationality": {
      "male": "BÃ©lizien",
      "female": "BÃ©lizien"
    },
    "currency": "BZD",
    "flag": {
      "emoji": "ðŸ‡§ðŸ‡¿",
      "url": "https://flagpedia.net/data/flags/w20/bz.png"
    },
    "phone_code": "+501"
  },
  "benin": {
    "id": "BÃ©nin",
    "name": "BÃ©nin",
    "nationality": {
      "male": "BÃ©ninois",
      "female": "BÃ©ninois"
    },
    "currency": "XOF",
    "flag": {
      "emoji": "ðŸ‡§ðŸ‡¯",
      "url": "https://flagpedia.net/data/flags/w20/bj.png"
    },
    "phone_code": "+229"
  },
  "bermuda": {
    "id": "shorts",
    "name": "Bermudas",
    "nationality": {
      "male": "Bermudien",
      "female": "Bermudien"
    },
    "currency": "DMO",
    "flag": {
      "emoji": "ðŸ‡§ðŸ‡²",
      "url": "https://flagpedia.net/data/flags/w20/bm.png"
    },
    "phone_code": "+1-441"
  },
  "bhutan": {
    "id": "bhoutan",
    "name": "Bhoutan",
    "nationality": {
      "male": "Bhoutanais",
      "female": "Bhoutanais"
    },
    "currency": "BTN",
    "flag": {
      "emoji": "ðŸ‡§ðŸ‡¹",
      "url": "https://flagpedia.net/data/flags/w20/bt.png"
    },
    "phone_code": "+975"
  },
  "bolivia": {
    "id": "Bolivie",
    "name": "Bolivie",
    "nationality": {
      "male": "bolivien",
      "female": "bolivien"
    },
    "currency": "BOB",
    "flag": {
      "emoji": "ðŸ‡§ðŸ‡´",
      "url": "https://flagpedia.net/data/flags/w20/bo.png"
    },
    "phone_code": "+591"
  },
  "bosnia_and_herzegovina": {
    "id": "Bosnie HerzÃ©govine",
    "name": "Bosnie HerzÃ©govine",
    "nationality": {
      "male": "bosniaque",
      "female": "Bosnie"
    },
    "currency": "BAM",
    "flag": {
      "emoji": "ðŸ‡§ðŸ‡¦",
      "url": "https://flagpedia.net/data/flags/w20/ba.png"
    },
    "phone_code": "+387"
  },
  "botswana": {
    "id": "Botswana",
    "name": "Botswana",
    "nationality": {
      "male": "Botswana",
      "female": "Botswana"
    },
    "currency": "BWP",
    "flag": {
      "emoji": "ðŸ‡§ðŸ‡¼",
      "url": "https://flagpedia.net/data/flags/w20/bw.png"
    },
    "phone_code": "+267"
  },
  "brazil": {
    "id": "BrÃ©sil",
    "name": "BrÃ©sil",
    "nationality": {
      "male": "brÃ©silien",
      "female": "brÃ©silien"
    },
    "currency": "BRL",
    "flag": {
      "emoji": "ðŸ‡§ðŸ‡·",
      "url": "https://flagpedia.net/data/flags/w20/br.png"
    },
    "phone_code": "+55"
  },
  "brunei": {
    "id": "BrunÃ©i",
    "name": "BrunÃ©i",
    "nationality": {
      "male": "BrunÃ©ien",
      "female": "BrunÃ©ien"
    },
    "currency": "BND",
    "flag": {
      "emoji": "ðŸ‡§ðŸ‡³",
      "url": "https://flagpedia.net/data/flags/w20/bn.png"
    },
    "phone_code": "+673"
  },
  "bulgaria": {
    "id": "Bulgarie",
    "name": "Bulgarie",
    "nationality": {
      "male": "bulgare",
      "female": "bulgare"
    },
    "currency": "BGN",
    "flag": {
      "emoji": "ðŸ‡§ðŸ‡¬",
      "url": "https://flagpedia.net/data/flags/w20/bg.png"
    },
    "phone_code": "+359"
  },
  "burkina_faso": {
    "id": "Burkina Faso",
    "name": "Burkina Faso",
    "nationality": {
      "male": "burkinabÃ©",
      "female": "burkinabÃ©"
    },
    "currency": "XOF",
    "flag": {
      "emoji": "ðŸ‡§ðŸ‡«",
      "url": "https://flagpedia.net/data/flags/w20/bf.png"
    },
    "phone_code": "+226"
  },
  "burundi": {
    "id": "Burundi",
    "name": "Burundi",
    "nationality": {
      "male": "burundais",
      "female": "burundais"
    },
    "currency": "FIF",
    "flag": {
      "emoji": "ðŸ‡§ðŸ‡®",
      "url": "https://flagpedia.net/data/flags/w20/bi.png"
    },
    "phone_code": "+257"
  },
  "cabo_verde": {
    "id": "Cap Vert",
    "name": "Cap Vert",
    "nationality": {
      "male": "Cap-Verdien",
      "female": "Cap-Verdien"
    },
    "currency": "CVE",
    "flag": {
      "emoji": "ðŸ‡¨ðŸ‡»",
      "url": "https://flagpedia.net/data/flags/w20/cv.png"
    },
    "phone_code": "+238"
  },
  "cambodia": {
    "id": "Cambodge",
    "name": "Cambodge",
    "nationality": {
      "male": "cambodgien",
      "female": "cambodgien"
    },
    "currency": "KHR",
    "flag": {
      "emoji": "ðŸ‡°ðŸ‡­",
      "url": "https://flagpedia.net/data/flags/w20/kh.png"
    },
    "phone_code": "+855"
  },
  "cameroon": {
    "id": "Cameroun",
    "name": "Cameroun",
    "nationality": {
      "male": "Camerounais",
      "female": "Camerounais"
    },
    "currency": "XAF",
    "flag": {
      "emoji": "ðŸ‡¨ðŸ‡²",
      "url": "https://flagpedia.net/data/flags/w20/cm.png"
    },
    "phone_code": "+237"
  },
  "canada": {
    "id": "Canada",
    "name": "Canada",
    "nationality": {
      "male": "canadien",
      "female": "canadien"
    },
    "currency": "GOUJAT",
    "flag": {
      "emoji": "ðŸ‡¨ðŸ‡¦",
      "url": "https://flagpedia.net/data/flags/w20/ca.png"
    },
    "phone_code": "+1"
  },
  "central_african_republic": {
    "id": "RÃ©publique centrafricaine",
    "name": "RÃ©publique centrafricaine",
    "nationality": {
      "male": "Centrafricain",
      "female": "Centrafricain"
    },
    "currency": "XAF",
    "flag": {
      "emoji": "ðŸ‡¨ðŸ‡«",
      "url": "https://flagpedia.net/data/flags/w20/cf.png"
    },
    "phone_code": "+236"
  },
  "chad": {
    "id": "Tchad",
    "name": "Tchad",
    "nationality": {
      "male": "Tchadien",
      "female": "Chadiana"
    },
    "currency": "XAF",
    "flag": {
      "emoji": "ðŸ‡¹ðŸ‡©",
      "url": "https://flagpedia.net/data/flags/w20/td.png"
    },
    "phone_code": "+235"
  },
  "chile": {
    "id": "Chili",
    "name": "Chili",
    "nationality": {
      "male": "chilien",
      "female": "chilien"
    },
    "currency": "CLP",
    "flag": {
      "emoji": "ðŸ‡¨ðŸ‡±",
      "url": "https://flagpedia.net/data/flags/w20/cl.png"
    },
    "phone_code": "+56"
  },
  "china": {
    "id": "Chine",
    "name": "Chine",
    "nationality": {
      "male": "Chinois",
      "female": "Chinois"
    },
    "currency": "CNY",
    "flag": {
      "emoji": "ðŸ‡¨ðŸ‡³",
      "url": "https://flagpedia.net/data/flags/w20/cn.png"
    },
    "phone_code": "+86"
  },
  "colombia": {
    "id": "Colombie",
    "name": "Colombie",
    "nationality": {
      "male": "colombien",
      "female": "colombien"
    },
    "currency": "FLIC",
    "flag": {
      "emoji": "ðŸ‡¨ðŸ‡´",
      "url": "https://flagpedia.net/data/flags/w20/co.png"
    },
    "phone_code": "+57"
  },
  "comoros": {
    "id": "comores",
    "name": "Comores",
    "nationality": {
      "male": "Comorien",
      "female": "Comorien"
    },
    "currency": "KMF",
    "flag": {
      "emoji": "ðŸ‡°ðŸ‡²",
      "url": "https://flagpedia.net/data/flags/w20/km.png"
    },
    "phone_code": "+269"
  },
  "congo_brazzaville": {
    "id": "congo_brazzaville",
    "name": "Congo-Brazzaville",
    "nationality": {
      "male": "Congolais",
      "female": "Congolais"
    },
    "currency": "XAF",
    "flag": {
      "emoji": "ðŸ‡¨ðŸ‡¬",
      "url": "https://flagpedia.net/data/flags/w20/cg.png"
    },
    "phone_code": "+242"
  },
  "congo_kinshasa": {
    "id": "congo_kinshasa",
    "name": "Congo (Kinshasa)",
    "nationality": {
      "male": "Congolais",
      "female": "Congolais"
    },
    "currency": "CDF",
    "flag": {
      "emoji": "ðŸ‡¨ðŸ‡©",
      "url": "https://flagpedia.net/data/flags/w20/cd.png"
    },
    "phone_code": "+243"
  },
  "costa_rica": {
    "id": "Costa Rica",
    "name": "Costa Rica",
    "nationality": {
      "male": "costaricain",
      "female": "costaricain"
    },
    "currency": "CRC",
    "flag": {
      "emoji": "ðŸ‡¨ðŸ‡·",
      "url": "https://flagpedia.net/data/flags/w20/cr.png"
    },
    "phone_code": "+506"
  },
  "croatia": {
    "id": "Croatie",
    "name": "Croatie",
    "nationality": {
      "male": "croate",
      "female": "croate"
    },
    "currency": "HRK",
    "flag": {
      "emoji": "ðŸ‡­ðŸ‡·",
      "url": "https://flagpedia.net/data/flags/w20/hr.png"
    },
    "phone_code": "+385"
  },
  "cuba": {
    "id": "Cuba",
    "name": "Cuba",
    "nationality": {
      "male": "cubain",
      "female": "cubain"
    },
    "currency": "TASSE,CUC",
    "flag": {
      "emoji": "ðŸ‡¨ðŸ‡º",
      "url": "https://flagpedia.net/data/flags/w20/cu.png"
    },
    "phone_code": "+53"
  },
  "cyprus": {
    "id": "Chypre",
    "name": "Chypre",
    "nationality": {
      "male": "Chypriote",
      "female": "Chypriote"
    },
    "currency": "EUR",
    "flag": {
      "emoji": "ðŸ‡¨ðŸ‡¾",
      "url": "https://flagpedia.net/data/flags/w20/cy.png"
    },
    "phone_code": "+357"
  },
  "czech_republic": {
    "id": "RÃ©publique tchÃ¨que",
    "name": "RÃ©publique tchÃ¨que",
    "nationality": {
      "male": "tchÃ¨que",
      "female": "tchÃ¨que"
    },
    "currency": "CZK",
    "flag": {
      "emoji": "ðŸ‡¨ðŸ‡¿",
      "url": "https://flagpedia.net/data/flags/w20/cz.png"
    },
    "phone_code": "+420"
  },
  "denmark": {
    "id": "Danemark",
    "name": "Danemark",
    "nationality": {
      "male": "danois",
      "female": "danois"
    },
    "currency": "DKK",
    "flag": {
      "emoji": "ðŸ‡©ðŸ‡°",
      "url": "https://flagpedia.net/data/flags/w20/dk.png"
    },
    "phone_code": "+45"
  },
  "djibouti": {
    "id": "Djibouti",
    "name": "Djibouti",
    "nationality": {
      "male": "Djiboutien",
      "female": "Djiboutien"
    },
    "currency": "DJF",
    "flag": {
      "emoji": "ðŸ‡©ðŸ‡¯",
      "url": "https://flagpedia.net/data/flags/w20/dj.png"
    },
    "phone_code": "+253"
  },
  "dominica": {
    "id": "Dominique",
    "name": "Dominique",
    "nationality": {
      "male": "dominicain",
      "female": "dominicain"
    },
    "currency": "XCD",
    "flag": {
      "emoji": "ðŸ‡©ðŸ‡²",
      "url": "https://flagpedia.net/data/flags/w20/dm.png"
    },
    "phone_code": "+1-767"
  },
  "dominican_republic": {
    "id": "RÃ©publique dominicaine",
    "name": "RÃ©publique dominicaine",
    "nationality": {
      "male": "dominicain",
      "female": "dominicain"
    },
    "currency": "DOP",
    "flag": {
      "emoji": "ðŸ‡©ðŸ‡´",
      "url": "https://flagpedia.net/data/flags/w20/do.png"
    },
    "phone_code": "+1-809,+1-829,+1-849"
  },
  "ecuador": {
    "id": "Equateur",
    "name": "Ã‰quateur",
    "nationality": {
      "male": "Ã‰quatorien",
      "female": "Ã‰quatorien"
    },
    "currency": "USD",
    "flag": {
      "emoji": "ðŸ‡ªðŸ‡¨",
      "url": "https://flagpedia.net/data/flags/w20/ec.png"
    },
    "phone_code": "+593"
  },
  "egypt": {
    "id": "Egypte",
    "name": "Egypte",
    "nationality": {
      "male": "Ã©gyptien",
      "female": "Ã©gyptien"
    },
    "currency": "EGP",
    "flag": {
      "emoji": "ðŸ‡ªðŸ‡¬",
      "url": "https://flagpedia.net/data/flags/w20/eg.png"
    },
    "phone_code": "+20"
  },
  "el_salvador": {
    "id": "Le Salvador",
    "name": "Le Salvador",
    "nationality": {
      "male": "Salvadorien",
      "female": "Salvadorien"
    },
    "currency": "USD",
    "flag": {
      "emoji": "ðŸ‡¸ðŸ‡»",
      "url": "https://flagpedia.net/data/flags/w20/sv.png"
    },
    "phone_code": "+503"
  },
  "equatorial_guinea": {
    "id": "GuinÃ©e Ã‰quatoriale",
    "name": "GuinÃ©e Ã‰quatoriale",
    "nationality": {
      "male": "GuinÃ©e Ã©quatorienne",
      "female": "GuinÃ©e Ã©quatorienne"
    },
    "currency": "XAF",
    "flag": {
      "emoji": "ðŸ‡¬ðŸ‡¶",
      "url": "https://flagpedia.net/data/flags/w20/gq.png"
    },
    "phone_code": "+240"
  },
  "eritrea": {
    "id": "Ã‰rythrÃ©e",
    "name": "Ã‰rythrÃ©e",
    "nationality": {
      "male": "Ã‰rythrÃ©en",
      "female": "Ã‰rythrÃ©e"
    },
    "currency": "ERN",
    "flag": {
      "emoji": "ðŸ‡ªðŸ‡·",
      "url": "https://flagpedia.net/data/flags/w20/er.png"
    },
    "phone_code": "+291"
  },
  "estonia": {
    "id": "Estonie",
    "name": "Estonie",
    "nationality": {
      "male": "estonien",
      "female": "estonien"
    },
    "currency": "EUR",
    "flag": {
      "emoji": "ðŸ‡ªðŸ‡ª",
      "url": "https://flagpedia.net/data/flags/w20/ee.png"
    },
    "phone_code": "+372"
  },
  "eswatini": {
    "id": "eswatini",
    "name": "Eswatini",
    "nationality": {
      "male": "Swazi",
      "female": "Swazie"
    },
    "currency": "SZL",
    "flag": {
      "emoji": "ðŸ‡¸ðŸ‡¿",
      "url": "https://flagpedia.net/data/flags/w20/sz.png"
    },
    "phone_code": "+268"
  },
  "ethiopia": {
    "id": "Ethiopie",
    "name": "Ethiopie",
    "nationality": {
      "male": "Ã©thiopien",
      "female": "Ã©thiopien"
    },
    "currency": "ETB",
    "flag": {
      "emoji": "ðŸ‡ªðŸ‡¹",
      "url": "https://flagpedia.net/data/flags/w20/et.png"
    },
    "phone_code": "+251"
  },
  "fiji": {
    "id": "Fidji",
    "name": "Fidji",
    "nationality": {
      "male": "Fidjien",
      "female": "Fidjien"
    },
    "currency": "FJD",
    "flag": {
      "emoji": "ðŸ‡«ðŸ‡¯",
      "url": "https://flagpedia.net/data/flags/w20/fj.png"
    },
    "phone_code": "+679"
  },
  "finland": {
    "id": "Finlande",
    "name": "Finlande",
    "nationality": {
      "male": "finlandais",
      "female": "finlandais"
    },
    "currency": "EUR",
    "flag": {
      "emoji": "ðŸ‡«ðŸ‡®",
      "url": "https://flagpedia.net/data/flags/w20/fi.png"
    },
    "phone_code": "+358"
  },
  "france": {
    "id": "France",
    "name": "France",
    "nationality": {
      "male": "FranÃ§ais",
      "female": "FranÃ§ais"
    },
    "currency": "EUR",
    "flag": {
      "emoji": "ðŸ‡«ðŸ‡·",
      "url": "https://flagpedia.net/data/flags/w20/fr.png"
    },
    "phone_code": "+33"
  },
  "gabon": {
    "id": "Gabon",
    "name": "Gabon",
    "nationality": {
      "male": "gabonais",
      "female": "gabonais"
    },
    "currency": "XAF",
    "flag": {
      "emoji": "ðŸ‡¬ðŸ‡¦",
      "url": "https://flagpedia.net/data/flags/w20/ga.png"
    },
    "phone_code": "+241"
  },
  "gambia": {
    "id": "Gambie",
    "name": "Gambie",
    "nationality": {
      "male": "gambien",
      "female": "gambien"
    },
    "currency": "GMD",
    "flag": {
      "emoji": "ðŸ‡¬ðŸ‡²",
      "url": "https://flagpedia.net/data/flags/w20/gm.png"
    },
    "phone_code": "+220"
  },
  "georgia": {
    "id": "GÃ©orgie",
    "name": "GÃ©orgie",
    "nationality": {
      "male": "gÃ©orgien",
      "female": "GÃ©orgienne"
    },
    "currency": "GEL",
    "flag": {
      "emoji": "ðŸ‡¬ðŸ‡ª",
      "url": "https://flagpedia.net/data/flags/w20/ge.png"
    },
    "phone_code": "+995"
  },
  "germany": {
    "id": "Allemagne",
    "name": "Allemagne",
    "nationality": {
      "male": "Allemand",
      "female": "Allemand"
    },
    "currency": "EUR",
    "flag": {
      "emoji": "ðŸ‡©ðŸ‡ª",
      "url": "https://flagpedia.net/data/flags/w20/de.png"
    },
    "phone_code": "+49"
  },
  "ghana": {
    "id": "Ghana",
    "name": "Ghana",
    "nationality": {
      "male": "ghanÃ©en",
      "female": "ghanÃ©en"
    },
    "currency": "SGH",
    "flag": {
      "emoji": "ðŸ‡¬ðŸ‡­",
      "url": "https://flagpedia.net/data/flags/w20/gh.png"
    },
    "phone_code": "+233"
  },
  "greece": {
    "id": "GrÃ¨ce",
    "name": "GrÃ¨ce",
    "nationality": {
      "male": "grec",
      "female": "grec"
    },
    "currency": "EUR",
    "flag": {
      "emoji": "ðŸ‡«ðŸ‡·",
      "url": "https://flagpedia.net/data/flags/w20/gr.png"
    },
    "phone_code": "+30"
  },
  "grenada": {
    "id": "grenade",
    "name": "Grenade",
    "nationality": {
      "male": "Grenadien",
      "female": "Grenadine"
    },
    "currency": "XCD",
    "flag": {
      "emoji": "ðŸ‡¬ðŸ‡©",
      "url": "https://flagpedia.net/data/flags/w20/gd.png"
    },
    "phone_code": "+1-473"
  },
  "guatemala": {
    "id": "Guatemala",
    "name": "Guatemala",
    "nationality": {
      "male": "guatÃ©maltÃ¨que",
      "female": "guatÃ©maltÃ¨que"
    },
    "currency": "GTQ",
    "flag": {
      "emoji": "ðŸ‡¬ðŸ‡¹",
      "url": "https://flagpedia.net/data/flags/w20/gt.png"
    },
    "phone_code": "+502"
  },
  "guinea": {
    "id": "GuinÃ©e",
    "name": "GuinÃ©e",
    "nationality": {
      "male": "GuinÃ©e",
      "female": "GuinÃ©e"
    },
    "currency": "GNF",
    "flag": {
      "emoji": "ðŸ‡¬ðŸ‡³",
      "url": "https://flagpedia.net/data/flags/w20/gn.png"
    },
    "phone_code": "+224"
  },
  "guinea_bissau": {
    "id": "guinÃ©e_bissau",
    "name": "GuinÃ©e-Bissau",
    "nationality": {
      "male": "GuinÃ©e-Bissauense",
      "female": "GuinÃ©e-Bissauense"
    },
    "currency": "XOF",
    "flag": {
      "emoji": "ðŸ‡«ðŸ‡·",
      "url": "https://flagpedia.net/data/flags/w20/gw.png"
    },
    "phone_code": "+245"
  },
  "guyana": {
    "id": "Guyane",
    "name": "Guyane",
    "nationality": {
      "male": "Guyanais",
      "female": "Guyanais"
    },
    "currency": "GYD",
    "flag": {
      "emoji": "ðŸ‡¬ðŸ‡¾",
      "url": "https://flagpedia.net/data/flags/w20/gy.png"
    },
    "phone_code": "+592"
  },
  "haiti": {
    "id": "HaÃ¯ti",
    "name": "HaÃ¯ti",
    "nationality": {
      "male": "haÃ¯tien",
      "female": "haÃ¯tien"
    },
    "currency": "HTG,USD",
    "flag": {
      "emoji": "ðŸ‡­ðŸ‡¹",
      "url": "https://flagpedia.net/data/flags/w20/ht.png"
    },
    "phone_code": "+509"
  },
  "honduras": {
    "id": "Honduras",
    "name": "Honduras",
    "nationality": {
      "male": "Hondurien",
      "female": "Hondurien"
    },
    "currency": "HNL",
    "flag": {
      "emoji": "ðŸ‡­ðŸ‡³",
      "url": "https://flagpedia.net/data/flags/w20/hn.png"
    },
    "phone_code": "+504"
  },
  "hungary": {
    "id": "Hongrie",
    "name": "Hongrie",
    "nationality": {
      "male": "hongrois",
      "female": "hongrois"
    },
    "currency": "HUF",
    "flag": {
      "emoji": "ðŸ‡­ðŸ‡º",
      "url": "https://flagpedia.net/data/flags/w20/hu.png"
    },
    "phone_code": "+36"
  },
  "iceland": {
    "id": "Islande",
    "name": "Islande",
    "nationality": {
      "male": "islandais",
      "female": "islandais"
    },
    "currency": "ISK",
    "flag": {
      "emoji": "ðŸ‡®ðŸ‡¸",
      "url": "https://flagpedia.net/data/flags/w20/is.png"
    },
    "phone_code": "+354"
  },
  "india": {
    "id": "Inde",
    "name": "Inde",
    "nationality": {
      "male": "Indien",
      "female": "Indiana"
    },
    "currency": "INR",
    "flag": {
      "emoji": "ðŸ‡®ðŸ‡³",
      "url": "https://flagpedia.net/data/flags/w20/in.png"
    },
    "phone_code": "+91"
  },
  "indonesia": {
    "id": "IndonÃ©sie",
    "name": "IndonÃ©sie",
    "nationality": {
      "male": "indonÃ©sien",
      "female": "IndonÃ©sie"
    },
    "currency": "IDR",
    "flag": {
      "emoji": "ðŸ‡®ðŸ‡©",
      "url": "https://flagpedia.net/data/flags/w20/id.png"
    },
    "phone_code": "+62"
  },
  "iran": {
    "id": "l'Iran",
    "name": "L'Iran",
    "nationality": {
      "male": "iranien",
      "female": "iranien"
    },
    "currency": "TRI",
    "flag": {
      "emoji": "ðŸ‡®ðŸ‡·",
      "url": "https://flagpedia.net/data/flags/w20/ir.png"
    },
    "phone_code": "+98"
  },
  "iraq": {
    "id": "Irak",
    "name": "Irak",
    "nationality": {
      "male": "irakien",
      "female": "irakien"
    },
    "currency": "IQD",
    "flag": {
      "emoji": "ðŸ‡®ðŸ‡¶",
      "url": "https://flagpedia.net/data/flags/w20/iq.png"
    },
    "phone_code": "+964"
  },
  "ireland": {
    "id": "Irlande",
    "name": "Irlande",
    "nationality": {
      "male": "irlandais",
      "female": "irlandais"
    },
    "currency": "EUR",
    "flag": {
      "emoji": "ðŸ‡®ðŸ‡ª",
      "url": "https://flagpedia.net/data/flags/w20/ie.png"
    },
    "phone_code": "+353"
  },
  "israel": {
    "id": "IsraÃ«l",
    "name": "IsraÃ«l",
    "nationality": {
      "male": "israÃ©lien",
      "female": "israÃ©lien"
    },
    "currency": "ILS",
    "flag": {
      "emoji": "ðŸ‡®ðŸ‡±",
      "url": "https://flagpedia.net/data/flags/w20/il.png"
    },
    "phone_code": "+972"
  },
  "italy": {
    "id": "Italie",
    "name": "Italie",
    "nationality": {
      "male": "italien",
      "female": "italien"
    },
    "currency": "EUR",
    "flag": {
      "emoji": "ðŸ‡®ðŸ‡¹",
      "url": "https://flagpedia.net/data/flags/w20/it.png"
    },
    "phone_code": "+39"
  },
  "jamaica": {
    "id": "JamaÃ¯que",
    "name": "JamaÃ¯que",
    "nationality": {
      "male": "jamaÃ¯quain",
      "female": "jamaÃ¯quain"
    },
    "currency": "JMD",
    "flag": {
      "emoji": "ðŸ‡¯ðŸ‡²",
      "url": "https://flagpedia.net/data/flags/w20/jm.png"
    },
    "phone_code": "+1-876"
  },
  "japan": {
    "id": "Japon",
    "name": "Japon",
    "nationality": {
      "male": "Japonais",
      "female": "Japonais"
    },
    "currency": "JPY",
    "flag": {
      "emoji": "ðŸ‡¯ðŸ‡µ",
      "url": "https://flagpedia.net/data/flags/w20/jp.png"
    },
    "phone_code": "+81"
  },
  "jordan": {
    "id": "Jordan",
    "name": "Jordan",
    "nationality": {
      "male": "Jordan",
      "female": "Jordana"
    },
    "currency": "JOD",
    "flag": {
      "emoji": "ðŸ‡¯ðŸ‡´",
      "url": "https://flagpedia.net/data/flags/w20/jo.png"
    },
    "phone_code": "+962"
  },
  "kazakhstan": {
    "id": "Kazakhstan",
    "name": "Kazakhstan",
    "nationality": {
      "male": "Kazakh",
      "female": "Kazakh"
    },
    "currency": "KZT",
    "flag": {
      "emoji": "ðŸ‡°ðŸ‡¿",
      "url": "https://flagpedia.net/data/flags/w20/kz.png"
    },
    "phone_code": "+7"
  },
  "kenya": {
    "id": "Kenya",
    "name": "Kenya",
    "nationality": {
      "male": "Kenyan",
      "female": "Kenyan"
    },
    "currency": "KES",
    "flag": {
      "emoji": "ðŸ‡°ðŸ‡ª",
      "url": "https://flagpedia.net/data/flags/w20/ke.png"
    },
    "phone_code": "+254"
  },
  "kiribati": {
    "id": "Kiribati",
    "name": "Kiribati",
    "nationality": {
      "male": "Kiribatien",
      "female": "Kiribatiana"
    },
    "currency": "EUR",
    "flag": {
      "emoji": "ðŸ‡°ðŸ‡®",
      "url": "https://flagpedia.net/data/flags/w20/ki.png"
    },
    "phone_code": "+686"
  },
  "kuwait": {
    "id": "Koweit",
    "name": "Koweit",
    "nationality": {
      "male": "koweÃ¯tien",
      "female": "koweÃ¯tien"
    },
    "currency": "KWD",
    "flag": {
      "emoji": "ðŸ‡°ðŸ‡¼",
      "url": "https://flagpedia.net/data/flags/w20/kw.png"
    },
    "phone_code": "+965"
  },
  "kyrgyzstan": {
    "id": "Kirghizistan",
    "name": "Kirghizistan",
    "nationality": {
      "male": "Kirghize",
      "female": "Kirghize"
    },
    "currency": "KG",
    "flag": {
      "emoji": "ðŸ‡°ðŸ‡¬",
      "url": "https://flagpedia.net/data/flags/w20/kg.png"
    },
    "phone_code": "+996"
  },
  "laos": {
    "id": "Laos",
    "name": "Laos",
    "nationality": {
      "male": "Laothien",
      "female": "Laotien"
    },
    "currency": "LAC",
    "flag": {
      "emoji": "ðŸ‡±ðŸ‡¦",
      "url": "https://flagpedia.net/data/flags/w20/la.png"
    },
    "phone_code": "+856"
  },
  "latvia": {
    "id": "Lettonie",
    "name": "Lettonie",
    "nationality": {
      "male": "letton",
      "female": "letton"
    },
    "currency": "EUR",
    "flag": {
      "emoji": "ðŸ‡±ðŸ‡»",
      "url": "https://flagpedia.net/data/flags/w20/lv.png"
    },
    "phone_code": "+371"
  },
  "lebanon": {
    "id": "Liban",
    "name": "Liban",
    "nationality": {
      "male": "libanais",
      "female": "libanais"
    },
    "currency": "LBP",
    "flag": {
      "emoji": "ðŸ‡±ðŸ‡§",
      "url": "https://flagpedia.net/data/flags/w20/lb.png"
    },
    "phone_code": "+961"
  },
  "lesotho": {
    "id": "Lesotho",
    "name": "Lesotho",
    "nationality": {
      "male": "Basotho",
      "female": "Basota"
    },
    "currency": "LSL,ZAR",
    "flag": {
      "emoji": "ðŸ‡±ðŸ‡¸",
      "url": "https://flagpedia.net/data/flags/w20/ls.png"
    },
    "phone_code": "+266"
  },
  "liberia": {
    "id": "LibÃ©ria",
    "name": "LibÃ©ria",
    "nationality": {
      "male": "LibÃ©rien",
      "female": "LibÃ©rien"
    },
    "currency": "LRD",
    "flag": {
      "emoji": "ðŸ‡±ðŸ‡·",
      "url": "https://flagpedia.net/data/flags/w20/lr.png"
    },
    "phone_code": "+231"
  },
  "libya": {
    "id": "Libye",
    "name": "Libye",
    "nationality": {
      "male": "libyen",
      "female": "Libye"
    },
    "currency": "LYD",
    "flag": {
      "emoji": "ðŸ‡±ðŸ‡¾",
      "url": "https://flagpedia.net/data/flags/w20/ly.png"
    },
    "phone_code": "+218"
  },
  "liechtenstein": {
    "id": "Liechtenstein",
    "name": "Liechtenstein",
    "nationality": {
      "male": "Liechtensteinien",
      "female": "Liechtensteinien"
    },
    "currency": "CHF",
    "flag": {
      "emoji": "ðŸ‡±ðŸ‡®",
      "url": "https://flagpedia.net/data/flags/w20/li.png"
    },
    "phone_code": "+423"
  },
  "lithuania": {
    "id": "Lituanie",
    "name": "Lituanie",
    "nationality": {
      "male": "lituanien",
      "female": "lituanien"
    },
    "currency": "EUR",
    "flag": {
      "emoji": "ðŸ‡±ðŸ‡¹",
      "url": "https://flagpedia.net/data/flags/w20/lt.png"
    },
    "phone_code": "+370"
  },
  "luxembourg": {
    "id": "Luxembourg",
    "name": "Luxembourg",
    "nationality": {
      "male": "luxembourgeois",
      "female": "luxembourgeois"
    },
    "currency": "EUR",
    "flag": {
      "emoji": "ðŸ‡±ðŸ‡º",
      "url": "https://flagpedia.net/data/flags/w20/lu.png"
    },
    "phone_code": "+352"
  },
  "madagascar": {
    "id": "Madagascar",
    "name": "Madagascar",
    "nationality": {
      "male": "malgache",
      "female": "malgache"
    },
    "currency": "MGA",
    "flag": {
      "emoji": "ðŸ‡²ðŸ‡¬",
      "url": "https://flagpedia.net/data/flags/w20/mg.png"
    },
    "phone_code": "+261"
  },
  "malawi": {
    "id": "Malawi",
    "name": "Malawi",
    "nationality": {
      "male": "malawien",
      "female": "malawien"
    },
    "currency": "MWK",
    "flag": {
      "emoji": "ðŸ‡²ðŸ‡¼",
      "url": "https://flagpedia.net/data/flags/w20/mw.png"
    },
    "phone_code": "+265"
  },
  "malaysia": {
    "id": "Malaisie",
    "name": "Malaisie",
    "nationality": {
      "male": "malais",
      "female": "Malaisie"
    },
    "currency": "MYR",
    "flag": {
      "emoji": "ðŸ‡²ðŸ‡¾",
      "url": "https://flagpedia.net/data/flags/w20/my.png"
    },
    "phone_code": "+60"
  },
  "maldives": {
    "id": "Maldives",
    "name": "Maldives",
    "nationality": {
      "male": "Maldivien",
      "female": "Maldivien"
    },
    "currency": "MVR",
    "flag": {
      "emoji": "ðŸ‡²ðŸ‡»",
      "url": "https://flagpedia.net/data/flags/w20/mv.png"
    },
    "phone_code": "+960"
  },
  "mali": {
    "id": "Mali",
    "name": "Mali",
    "nationality": {
      "male": "Malien",
      "female": "Maliana"
    },
    "currency": "XOF",
    "flag": {
      "emoji": "ðŸ‡²ðŸ‡±",
      "url": "https://flagpedia.net/data/flags/w20/ml.png"
    },
    "phone_code": "+223"
  },
  "malta": {
    "id": "Malte",
    "name": "Malte",
    "nationality": {
      "male": "maltais",
      "female": "maltais"
    },
    "currency": "EUR",
    "flag": {
      "emoji": "ðŸ‡²ðŸ‡¹",
      "url": "https://flagpedia.net/data/flags/w20/mt.png"
    },
    "phone_code": "+356"
  },
  "marshall_islands": {
    "id": "Iles Marshall",
    "name": "Iles Marshall",
    "nationality": {
      "male": "MarÃ©chaux",
      "female": "MarÃ©chaux"
    },
    "currency": "USD",
    "flag": {
      "emoji": "ðŸ‡²ðŸ‡­",
      "url": "https://flagpedia.net/data/flags/w20/mh.png"
    },
    "phone_code": "+692"
  },
  "mauritania": {
    "id": "Mauritanie",
    "name": "Mauritanie",
    "nationality": {
      "male": "mauritanien",
      "female": "mauritanien"
    },
    "currency": "MRU",
    "flag": {
      "emoji": "ðŸ‡²ðŸ‡·",
      "url": "https://flagpedia.net/data/flags/w20/mr.png"
    },
    "phone_code": "+222"
  },
  "mauritius": {
    "id": "Maurice",
    "name": "Maurice",
    "nationality": {
      "male": "mauricien",
      "female": "mauricien"
    },
    "currency": "MUR",
    "flag": {
      "emoji": "ðŸ‡²ðŸ‡º",
      "url": "https://flagpedia.net/data/flags/w20/mu.png"
    },
    "phone_code": "+230"
  },
  "mexico": {
    "id": "Mexique",
    "name": "Mexique",
    "nationality": {
      "male": "mexicain",
      "female": "mexicain"
    },
    "currency": "MXN",
    "flag": {
      "emoji": "ðŸ‡²ðŸ‡½",
      "url": "https://flagpedia.net/data/flags/w20/mx.png"
    },
    "phone_code": "+52"
  },
  "micronesia": {
    "id": "MicronÃ©sie",
    "name": "MicronÃ©sie",
    "nationality": {
      "male": "MicronÃ©sien",
      "female": "MicronÃ©sie"
    },
    "currency": "USD",
    "flag": {
      "emoji": "ðŸ‡«ðŸ‡²",
      "url": "https://flagpedia.net/data/flags/w20/fm.png"
    },
    "phone_code": "+691"
  },
  "moldova": {
    "id": "Moldavie",
    "name": "Moldavie",
    "nationality": {
      "male": "Moldave",
      "female": "Moldavie"
    },
    "currency": "MDP",
    "flag": {
      "emoji": "ðŸ‡²ðŸ‡©",
      "url": "https://flagpedia.net/data/flags/w20/md.png"
    },
    "phone_code": "+373"
  },
  "monaco": {
    "id": "Monaco",
    "name": "Monaco",
    "nationality": {
      "male": "MonÃ©gasque",
      "female": "MonÃ©gasque"
    },
    "currency": "EUR",
    "flag": {
      "emoji": "ðŸ‡²ðŸ‡¨",
      "url": "https://flagpedia.net/data/flags/w20/mc.png"
    },
    "phone_code": "+377"
  },
  "mongolia": {
    "id": "Mongolie",
    "name": "Mongolie",
    "nationality": {
      "male": "mongol",
      "female": "mongol"
    },
    "currency": "MNT",
    "flag": {
      "emoji": "ðŸ‡²ðŸ‡³",
      "url": "https://flagpedia.net/data/flags/w20/mn.png"
    },
    "phone_code": "+976"
  },
  "montenegro": {
    "id": "MontÃ©nÃ©gro",
    "name": "MontÃ©nÃ©gro",
    "nationality": {
      "male": "montÃ©nÃ©grin",
      "female": "montÃ©nÃ©grin"
    },
    "currency": "EUR",
    "flag": {
      "emoji": "ðŸ‡²ðŸ‡ª",
      "url": "https://flagpedia.net/data/flags/w20/me.png"
    },
    "phone_code": "+382"
  },
  "morocco": {
    "id": "Maroc",
    "name": "Maroc",
    "nationality": {
      "male": "marocain",
      "female": "marocain"
    },
    "currency": "FOU",
    "flag": {
      "emoji": "ðŸ‡²ðŸ‡¦",
      "url": "https://flagpedia.net/data/flags/w20/ma.png"
    },
    "phone_code": "+212"
  },
  "mozambique": {
    "id": "Mozambique",
    "name": "Mozambique",
    "nationality": {
      "male": "Mozambicain",
      "female": "Mozambicain"
    },
    "currency": "MZN",
    "flag": {
      "emoji": "ðŸ‡²ðŸ‡¿",
      "url": "https://flagpedia.net/data/flags/w20/mz.png"
    },
    "phone_code": "+258"
  },
  "myanmar": {
    "id": "Myanmar",
    "name": "Birmanie",
    "nationality": {
      "male": "Birmanais",
      "female": "Birmanais"
    },
    "currency": "MMK",
    "flag": {
      "emoji": "ðŸ‡²ðŸ‡²",
      "url": "https://flagpedia.net/data/flags/w20/mm.png"
    },
    "phone_code": "+95"
  },
  "namibia": {
    "id": "Namibie",
    "name": "Namibie",
    "nationality": {
      "male": "Namibien",
      "female": "Namibien"
    },
    "currency": "NAD, ZAR",
    "flag": {
      "emoji": "ðŸ‡³ðŸ‡¦",
      "url": "https://flagpedia.net/data/flags/w20/na.png"
    },
    "phone_code": "+264"
  },
  "nauru": {
    "id": "Nauru",
    "name": "Nauru",
    "nationality": {
      "male": "Nauruan",
      "female": "Nauruana"
    },
    "currency": "EUR",
    "flag": {
      "emoji": "ðŸ‡³ðŸ‡·",
      "url": "https://flagpedia.net/data/flags/w20/nr.png"
    },
    "phone_code": "+674"
  },
  "nepal": {
    "id": "NÃ©pal",
    "name": "NÃ©pal",
    "nationality": {
      "male": "NÃ©palais",
      "female": "NÃ©palais"
    },
    "currency": "Radio Nationale Publique",
    "flag": {
      "emoji": "ðŸ‡³ðŸ‡µ",
      "url": "https://flagpedia.net/data/flags/w20/np.png"
    },
    "phone_code": "+977"
  },
  "netherlands": {
    "id": "Pays-Bas",
    "name": "Pays-Bas",
    "nationality": {
      "male": "NÃ©erlandais",
      "female": "NÃ©erlandais"
    },
    "currency": "EUR",
    "flag": {
      "emoji": "ðŸ‡³ðŸ‡±",
      "url": "https://flagpedia.net/data/flags/w20/nl.png"
    },
    "phone_code": "+31"
  },
  "new_zealand": {
    "id": "Nouvelle-ZÃ©lande",
    "name": "Nouvelle-ZÃ©lande",
    "nationality": {
      "male": "NÃ©o-ZÃ©landais",
      "female": "NÃ©o-ZÃ©landais"
    },
    "currency": "CAD",
    "flag": {
      "emoji": "ðŸ‡³ðŸ‡¿",
      "url": "https://flagpedia.net/data/flags/w20/nz.png"
    },
    "phone_code": "+64"
  },
  "nicaragua": {
    "id": "Nicaragua",
    "name": "Nicaragua",
    "nationality": {
      "male": "nicaraguayen",
      "female": "nicaraguayen"
    },
    "currency": "NIO",
    "flag": {
      "emoji": "ðŸ‡³ðŸ‡®",
      "url": "https://flagpedia.net/data/flags/w20/ni.png"
    },
    "phone_code": "+505"
  },
  "niger": {
    "id": "Niger",
    "name": "Niger",
    "nationality": {
      "male": "NigÃ©rien",
      "female": "NigÃ©riane"
    },
    "currency": "XOF",
    "flag": {
      "emoji": "ðŸ‡³ðŸ‡ª",
      "url": "https://flagpedia.net/data/flags/w20/ne.png"
    },
    "phone_code": "+227"
  },
  "nigeria": {
    "id": "Nigeria",
    "name": "Nigeria",
    "nationality": {
      "male": "NigÃ©rian",
      "female": "NigÃ©rian"
    },
    "currency": "NGN",
    "flag": {
      "emoji": "ðŸ‡³ðŸ‡¬",
      "url": "https://flagpedia.net/data/flags/w20/ng.png"
    },
    "phone_code": "+234"
  },
  "north_macedonia": {
    "id": "nord_macÃ©doine",
    "name": "MacÃ©doine du Nord",
    "nationality": {
      "male": "MacÃ©donien",
      "female": "MacÃ©doine"
    },
    "currency": "MKD",
    "flag": {
      "emoji": "ðŸ‡²ðŸ‡°",
      "url": "https://flagpedia.net/data/flags/w20/mk.png"
    },
    "phone_code": "+389"
  },
  "norway": {
    "id": "NorvÃ¨ge",
    "name": "NorvÃ¨ge",
    "nationality": {
      "male": "norvÃ©gien",
      "female": "norvÃ©gien"
    },
    "currency": "NOK",
    "flag": {
      "emoji": "ðŸ‡³ðŸ‡´",
      "url": "https://flagpedia.net/data/flags/w20/no.png"
    },
    "phone_code": "+47"
  },
  "oman": {
    "id": "Oman",
    "name": "Oman",
    "nationality": {
      "male": "Omanais",
      "female": "Omanais"
    },
    "currency": "OMR",
    "flag": {
      "emoji": "ðŸ‡´ðŸ‡²",
      "url": "https://flagpedia.net/data/flags/w20/om.png"
    },
    "phone_code": "+968"
  },
  "pakistan": {
    "id": "Pakistan",
    "name": "Pakistan",
    "nationality": {
      "male": "pakistanais",
      "female": "pakistanais"
    },
    "currency": "PKR",
    "flag": {
      "emoji": "ðŸ‡µðŸ‡°",
      "url": "https://flagpedia.net/data/flags/w20/pk.png"
    },
    "phone_code": "+92"
  },
  "palau": {
    "id": "Palaos",
    "name": "Palaos",
    "nationality": {
      "male": "Palaos",
      "female": "Palauana"
    },
    "currency": "USD",
    "flag": {
      "emoji": "ðŸ‡µðŸ‡¼",
      "url": "https://flagpedia.net/data/flags/w20/pw.png"
    },
    "phone_code": "+680"
  },
  "palestine": {
    "id": "Palestine",
    "name": "Palestine",
    "nationality": {
      "male": "palestinien",
      "female": "Palestine"
    },
    "currency": "ILS",
    "flag": {
      "emoji": "ðŸ‡µðŸ‡¸",
      "url": "https://flagpedia.net/data/flags/w20/ps.png"
    },
    "phone_code": "+970"
  },
  "panama": {
    "id": "Panama",
    "name": "Panama",
    "nationality": {
      "male": "panamÃ©en",
      "female": "Panama"
    },
    "currency": "PAB,USD",
    "flag": {
      "emoji": "ðŸ‡µðŸ‡¦",
      "url": "https://flagpedia.net/data/flags/w20/pa.png"
    },
    "phone_code": "+507"
  },
  "papua_new_guinea": {
    "id": "Papouasie Nouvelle GuinÃ©e",
    "name": "Papouasie Nouvelle GuinÃ©e",
    "nationality": {
      "male": "papou",
      "female": "Papouasie"
    },
    "currency": "PGK",
    "flag": {
      "emoji": "ðŸ‡µðŸ‡¬",
      "url": "https://flagpedia.net/data/flags/w20/pg.png"
    },
    "phone_code": "+675"
  },
  "paraguay": {
    "id": "Paraguay",
    "name": "Paraguay",
    "nationality": {
      "male": "Paraguayen",
      "female": "Paraguayen"
    },
    "currency": "PYG",
    "flag": {
      "emoji": "ðŸ‡µðŸ‡¾",
      "url": "https://flagpedia.net/data/flags/w20/py.png"
    },
    "phone_code": "+595"
  },
  "peru": {
    "id": "PÃ©rou",
    "name": "PÃ©rou",
    "nationality": {
      "male": "pÃ©ruvien",
      "female": "pÃ©ruvien"
    },
    "currency": "STYLO",
    "flag": {
      "emoji": "ðŸ‡µðŸ‡ª",
      "url": "https://flagpedia.net/data/flags/w20/pe.png"
    },
    "phone_code": "+51"
  },
  "philippines": {
    "id": "Philippines",
    "name": "Philippines",
    "nationality": {
      "male": "Philippin",
      "female": "Philippine"
    },
    "currency": "PHP",
    "flag": {
      "emoji": "ðŸ‡µðŸ‡­",
      "url": "https://flagpedia.net/data/flags/w20/ph.png"
    },
    "phone_code": "+63"
  },
  "poland": {
    "id": "Pologne",
    "name": "Pologne",
    "nationality": {
      "male": "polonais",
      "female": "polonais"
    },
    "currency": "PLN",
    "flag": {
      "emoji": "ðŸ‡µðŸ‡±",
      "url": "https://flagpedia.net/data/flags/w20/pl.png"
    },
    "phone_code": "+48"
  },
  "portugal": {
    "id": "le Portugal",
    "name": "le Portugal",
    "nationality": {
      "male": "Portugais",
      "female": "Portugais"
    },
    "currency": "EUR",
    "flag": {
      "emoji": "ðŸ‡µðŸ‡¹",
      "url": "https://flagpedia.net/data/flags/w20/pt.png"
    },
    "phone_code": "+351"
  },
  "puerto_rico": {
    "id": "porto_rico",
    "name": "Porto Rico",
    "nationality": {
      "male": "Portoricain",
      "female": "portoricain"
    },
    "currency": "USD",
    "flag": {
      "emoji": "ðŸ‡µðŸ‡·",
      "url": "https://flagpedia.net/data/flags/w20/pr.png"
    },
    "phone_code": "+1-787, +1-939"
  },
  "qatar": {
    "id": "Qatar",
    "name": "Qatar",
    "nationality": {
      "male": "Catari",
      "female": "Catari"
    },
    "currency": "QAR",
    "flag": {
      "emoji": "ðŸ‡¶ðŸ‡¦",
      "url": "https://flagpedia.net/data/flags/w20/qa.png"
    },
    "phone_code": "+974"
  },
  "romania": {
    "id": "Roumanie",
    "name": "Roumanie",
    "nationality": {
      "male": "roumain",
      "female": "roumain"
    },
    "currency": "RON",
    "flag": {
      "emoji": "ðŸ‡·ðŸ‡´",
      "url": "https://flagpedia.net/data/flags/w20/ro.png"
    },
    "phone_code": "+40"
  },
  "russia": {
    "id": "Russie",
    "name": "Russie",
    "nationality": {
      "male": "russe",
      "female": "russe"
    },
    "currency": "FROTTER",
    "flag": {
      "emoji": "ðŸ‡·ðŸ‡º",
      "url": "https://flagpedia.net/data/flags/w20/ru.png"
    },
    "phone_code": "+7"
  },
  "rwanda": {
    "id": "Rwanda",
    "name": "Rwanda",
    "nationality": {
      "male": "Rwandais",
      "female": "Rwandais"
    },
    "currency": "FRW",
    "flag": {
      "emoji": "ðŸ‡·ðŸ‡¼",
      "url": "https://flagpedia.net/data/flags/w20/rw.png"
    },
    "phone_code": "+250"
  },
  "saint_kitts_and_nevis": {
    "id": "Saint-Christophe-et-NiÃ©vÃ¨s",
    "name": "Saint-Christophe-et-NiÃ©vÃ¨s",
    "nationality": {
      "male": "Saint Kitts ou Nevisense",
      "female": "Saint Kitts ou Nevisense"
    },
    "currency": "XCD",
    "flag": {
      "emoji": "ðŸ‡°ðŸ‡³",
      "url": "https://flagpedia.net/data/flags/w20/kn.png"
    },
    "phone_code": "+1869"
  },
  "saint_lucia": {
    "id": "Sainte-Lucie",
    "name": "Sainte-Lucie",
    "nationality": {
      "male": "Santa Lucense",
      "female": "Santa Lucense"
    },
    "currency": "XCD",
    "flag": {
      "emoji": "ðŸ‡±ðŸ‡¨",
      "url": "https://flagpedia.net/data/flags/w20/lc.png"
    },
    "phone_code": "+1758"
  },
  "saint_vincent_and_the_grenadines": {
    "id": "Saint-Vincent-et-les-Grenadines",
    "name": "Saint-Vincent-et-les-Grenadines",
    "nationality": {
      "male": "Saint-Vincent",
      "female": "Saint-Vincent"
    },
    "currency": "XCD",
    "flag": {
      "emoji": "ðŸ‡»ðŸ‡¨",
      "url": "https://flagpedia.net/data/flags/w20/vc.png"
    },
    "phone_code": "+1784"
  },
  "samoa": {
    "id": "samoa",
    "name": "Samoa",
    "nationality": {
      "male": "Samoan",
      "female": "Samoana"
    },
    "currency": "WST",
    "flag": {
      "emoji": "ðŸ‡¼ðŸ‡¸",
      "url": "https://flagpedia.net/data/flags/w20/ws.png"
    },
    "phone_code": "+685"
  },
  "san_marino": {
    "id": "Saint Marin",
    "name": "Saint Marin",
    "nationality": {
      "male": "Saint Marin",
      "female": "Saint Marin"
    },
    "currency": "EUR",
    "flag": {
      "emoji": "ðŸ‡¸ðŸ‡²",
      "url": "https://flagpedia.net/data/flags/w20/sm.png"
    },
    "phone_code": "+378"
  },
  "sao_tome_and_principe": {
    "id": "sao_tome_and_principe",
    "name": "Sao TomÃ© et Principe",
    "nationality": {
      "male": "Santomense",
      "female": "Santomense"
    },
    "currency": "STN",
    "flag": {
      "emoji": "ðŸ‡¸ðŸ‡¹",
      "url": "https://flagpedia.net/data/flags/w20/st.png"
    },
    "phone_code": "+239"
  },
  "saudi_arabia": {
    "id": "Arabie Saoudite",
    "name": "Arabie Saoudite",
    "nationality": {
      "male": "saoudien",
      "female": "saoudien"
    },
    "currency": "DAS",
    "flag": {
      "emoji": "ðŸ‡¸ðŸ‡¦",
      "url": "https://flagpedia.net/data/flags/w20/sa.png"
    },
    "phone_code": "+966"
  },
  "senegal": {
    "id": "SÃ©nÃ©gal",
    "name": "SÃ©nÃ©gal",
    "nationality": {
      "male": "SÃ©nÃ©galais",
      "female": "SÃ©nÃ©galais"
    },
    "currency": "XOF",
    "flag": {
      "emoji": "ðŸ‡¸ðŸ‡³",
      "url": "https://flagpedia.net/data/flags/w20/sn.png"
    },
    "phone_code": "+221"
  },
  "serbia": {
    "id": "Serbie",
    "name": "Serbie",
    "nationality": {
      "male": "serbe",
      "female": "Serbie"
    },
    "currency": "RSD",
    "flag": {
      "emoji": "ðŸ‡·ðŸ‡¸",
      "url": "https://flagpedia.net/data/flags/w20/rs.png"
    },
    "phone_code": "+381"
  },
  "seychelles": {
    "id": "les Seychelles",
    "name": "les Seychelles",
    "nationality": {
      "male": "Seychellois",
      "female": "Seychellois"
    },
    "currency": "RCS",
    "flag": {
      "emoji": "ðŸ‡¸ðŸ‡¨",
      "url": "https://flagpedia.net/data/flags/w20/sc.png"
    },
    "phone_code": "+248"
  },
  "sierra_leone": {
    "id": "Sierra Leone",
    "name": "Sierra Leone",
    "nationality": {
      "male": "Sierra LÃ©onais",
      "female": "Sierra LÃ©onais"
    },
    "currency": "SLL",
    "flag": {
      "emoji": "ðŸ‡¸ðŸ‡±",
      "url": "https://flagpedia.net/data/flags/w20/sl.png"
    },
    "phone_code": "+232"
  },
  "singapore": {
    "id": "Singapour",
    "name": "Singapour",
    "nationality": {
      "male": "singapourien",
      "female": "singapourien"
    },
    "currency": "SGD",
    "flag": {
      "emoji": "ðŸ‡¸ðŸ‡¬",
      "url": "https://flagpedia.net/data/flags/w20/sg.png"
    },
    "phone_code": "+65"
  },
  "slovakia": {
    "id": "Slovaquie",
    "name": "Slovaquie",
    "nationality": {
      "male": "slovaque",
      "female": "slovaque"
    },
    "currency": "EUR",
    "flag": {
      "emoji": "ðŸ‡¸ðŸ‡°",
      "url": "https://flagpedia.net/data/flags/w20/sk.png"
    },
    "phone_code": "+421"
  },
  "slovenia": {
    "id": "la SlovÃ©nie",
    "name": "SlovÃ©nie",
    "nationality": {
      "male": "slovÃ¨ne",
      "female": "slovÃ¨ne"
    },
    "currency": "EUR",
    "flag": {
      "emoji": "ðŸ‡¸ðŸ‡®",
      "url": "https://flagpedia.net/data/flags/w20/si.png"
    },
    "phone_code": "+386"
  },
  "solomon_islands": {
    "id": "Les Ã®les Salomon",
    "name": "Les Ã®les Salomon",
    "nationality": {
      "male": "Salomonique",
      "female": "Salomonique"
    },
    "currency": "SBD",
    "flag": {
      "emoji": "ðŸ‡¸ðŸ‡§",
      "url": "https://flagpedia.net/data/flags/w20/sb.png"
    },
    "phone_code": "+677"
  },
  "somalia": {
    "id": "Somalie",
    "name": "Somalie",
    "nationality": {
      "male": "somali",
      "female": "somali"
    },
    "currency": "SOS",
    "flag": {
      "emoji": "ðŸ‡¸ðŸ‡´",
      "url": "https://flagpedia.net/data/flags/w20/so.png"
    },
    "phone_code": "+252"
  },
  "south_africa": {
    "id": "Afrique du Sud",
    "name": "Afrique du Sud",
    "nationality": {
      "male": "Sud africain",
      "female": "Sud africain"
    },
    "currency": "EUR",
    "flag": {
      "emoji": "ðŸ‡¿ðŸ‡¦",
      "url": "https://flagpedia.net/data/flags/w20/za.png"
    },
    "phone_code": "+27"
  },
  "south_sudan": {
    "id": "Soudan du sud",
    "name": "Soudan du sud",
    "nationality": {
      "male": "Soudanais du Sud",
      "female": "Soudanais du Sud"
    },
    "currency": "PAS",
    "flag": {
      "emoji": "ðŸ‡¸ðŸ‡¸",
      "url": "https://flagpedia.net/data/flags/w20/ss.png"
    },
    "phone_code": "+211"
  },
  "spain": {
    "id": "Espagne",
    "name": "Espagne",
    "nationality": {
      "male": "Espagnol",
      "female": "Espagnol"
    },
    "currency": "EUR",
    "flag": {
      "emoji": "ðŸ‡ªðŸ‡¸",
      "url": "https://flagpedia.net/data/flags/w20/es.png"
    },
    "phone_code": "+34"
  },
  "sri_lanka": {
    "id": "sri_lanka",
    "name": "Sri Lanka",
    "nationality": {
      "male": "Sri lankais",
      "female": "Sri lankais"
    },
    "currency": "LKR",
    "flag": {
      "emoji": "ðŸ‡±ðŸ‡°",
      "url": "https://flagpedia.net/data/flags/w20/lk.png"
    },
    "phone_code": "+94"
  },
  "sudan": {
    "id": "Soudan",
    "name": "Soudan",
    "nationality": {
      "male": "soudanais",
      "female": "soudanais"
    },
    "currency": "ODD",
    "flag": {
      "emoji": "ðŸ‡¸ðŸ‡©",
      "url": "https://flagpedia.net/data/flags/w20/sd.png"
    },
    "phone_code": "+249"
  },
  "suriname": {
    "id": "surinam",
    "name": "Surinam",
    "nationality": {
      "male": "Surinamien",
      "female": "Surinamien"
    },
    "currency": "SRD",
    "flag": {
      "emoji": "ðŸ‡¸ðŸ‡·",
      "url": "https://flagpedia.net/data/flags/w20/sr.png"
    },
    "phone_code": "+597"
  },
  "sweden": {
    "id": "SuÃ¨de",
    "name": "SuÃ¨de",
    "nationality": {
      "male": "suÃ©dois",
      "female": "suÃ©dois"
    },
    "currency": "SEK",
    "flag": {
      "emoji": "ðŸ‡¸ðŸ‡ª",
      "url": "https://flagpedia.net/data/flags/w20/se.png"
    },
    "phone_code": "+46"
  },
  "switzerland": {
    "id": "Suisse",
    "name": "Suisse",
    "nationality": {
      "male": "Suisse",
      "female": "Suisse"
    },
    "currency": "CHF",
    "flag": {
      "emoji": "ðŸ‡¨ðŸ‡­",
      "url": "https://flagpedia.net/data/flags/w20/ch.png"
    },
    "phone_code": "+41"
  },
  "syria": {
    "id": "Syrie",
    "name": "Syrie",
    "nationality": {
      "male": "syrien",
      "female": "Syrie"
    },
    "currency": "SYP",
    "flag": {
      "emoji": "ðŸ‡¸ðŸ‡¾",
      "url": "https://flagpedia.net/data/flags/w20/sy.png"
    },
    "phone_code": "+963"
  },
  "tajikistan": {
    "id": "Tadjikistan",
    "name": "Tadjikistan",
    "nationality": {
      "male": "tadjik",
      "female": "tadjik"
    },
    "currency": "TJS",
    "flag": {
      "emoji": "ðŸ‡¹ðŸ‡¯",
      "url": "https://flagpedia.net/data/flags/w20/tj.png"
    },
    "phone_code": "+992"
  },
  "tanzania": {
    "id": "Tanzanie",
    "name": "Tanzanie",
    "nationality": {
      "male": "tanzanien",
      "female": "tanzanien"
    },
    "currency": "TZS",
    "flag": {
      "emoji": "ðŸ‡¹ðŸ‡¿",
      "url": "https://flagpedia.net/data/flags/w20/tz.png"
    },
    "phone_code": "+255"
  },
  "thailand": {
    "id": "ThaÃ¯lande",
    "name": "ThaÃ¯lande",
    "nationality": {
      "male": "thaÃ¯landais",
      "female": "thaÃ¯landais"
    },
    "currency": "THB",
    "flag": {
      "emoji": "ðŸ‡¹ðŸ‡­",
      "url": "https://flagpedia.net/data/flags/w20/th.png"
    },
    "phone_code": "+66"
  },
  "timor_leste": {
    "id": "timor_leste",
    "name": "Timor oriental",
    "nationality": {
      "male": "Timorais",
      "female": "Timorais"
    },
    "currency": "USD",
    "flag": {
      "emoji": "ðŸ‡¹ðŸ‡±",
      "url": "https://flagpedia.net/data/flags/w20/tl.png"
    },
    "phone_code": "+670"
  },
  "togo": {
    "id": "Aller",
    "name": "Aller",
    "nationality": {
      "male": "togolais",
      "female": "togolais"
    },
    "currency": "XOF",
    "flag": {
      "emoji": "ðŸ‡¹ðŸ‡¬",
      "url": "https://flagpedia.net/data/flags/w20/tg.png"
    },
    "phone_code": "+228"
  },
  "tonga": {
    "id": "Tonga",
    "name": "Tonga",
    "nationality": {
      "male": "Tongien",
      "female": "Tongien"
    },
    "currency": "HAUT",
    "flag": {
      "emoji": "ðŸ‡¹ðŸ‡´",
      "url": "https://flagpedia.net/data/flags/w20/to.png"
    },
    "phone_code": "+676"
  },
  "trinidad_and_tobago": {
    "id": "TrinitÃ©-et-Tobago",
    "name": "TrinitÃ©-et-Tobago",
    "nationality": {
      "male": "Trinidadien",
      "female": "Trinidadien"
    },
    "currency": "TTD",
    "flag": {
      "emoji": "ðŸ‡¹ðŸ‡¹",
      "url": "https://flagpedia.net/data/flags/w20/tt.png"
    },
    "phone_code": "+1-868"
  },
  "tunisia": {
    "id": "Tunisie",
    "name": "Tunisie",
    "nationality": {
      "male": "tunisien",
      "female": "tunisien"
    },
    "currency": "TND",
    "flag": {
      "emoji": "ðŸ‡¹ðŸ‡³",
      "url": "https://flagpedia.net/data/flags/w20/tn.png"
    },
    "phone_code": "+216"
  },
  "turkey": {
    "id": "dinde",
    "name": "Turquie",
    "nationality": {
      "male": "turc",
      "female": "turc"
    },
    "currency": "ESSAYER",
    "flag": {
      "emoji": "ðŸ‡¹ðŸ‡·",
      "url": "https://flagpedia.net/data/flags/w20/tr.png"
    },
    "phone_code": "+90"
  },
  "turkmenistan": {
    "id": "TurkmÃ©nistan",
    "name": "TurkmÃ©nistan",
    "nationality": {
      "male": "TurkmÃ¨nes",
      "female": "TurkmÃ¨nes"
    },
    "currency": "TMT",
    "flag": {
      "emoji": "ðŸ‡¹ðŸ‡²",
      "url": "https://flagpedia.net/data/flags/w20/tm.png"
    },
    "phone_code": "+993"
  },
  "tuvalu": {
    "id": "tuvalu",
    "name": "Tuvalu",
    "nationality": {
      "male": "Tuvaluan",
      "female": "Tuvaluan"
    },
    "currency": "EUR",
    "flag": {
      "emoji": "ðŸ‡¹ðŸ‡»",
      "url": "https://flagpedia.net/data/flags/w20/tv.png"
    },
    "phone_code": "+688"
  },
  "uganda": {
    "id": "Ouganda",
    "name": "Ouganda",
    "nationality": {
      "male": "ougandais",
      "female": "ougandais"
    },
    "currency": "UGX",
    "flag": {
      "emoji": "ðŸ‡ºðŸ‡¬",
      "url": "https://flagpedia.net/data/flags/w20/ug.png"
    },
    "phone_code": "+256"
  },
  "ukraine": {
    "id": "Ukraine",
    "name": "Ukraine",
    "nationality": {
      "male": "ukrainien",
      "female": "ukrainien"
    },
    "currency": "UAH",
    "flag": {
      "emoji": "ðŸ‡ºðŸ‡¦",
      "url": "https://flagpedia.net/data/flags/w20/ua.png"
    },
    "phone_code": "+380"
  },
  "united_arab_emirates": {
    "id": "Emirats Arabes Unis",
    "name": "Emirats Arabes Unis",
    "nationality": {
      "male": "Ã‰mirati",
      "female": "Ã‰mirati"
    },
    "currency": "DEA",
    "flag": {
      "emoji": "ðŸ‡¦ðŸ‡ª",
      "url": "https://flagpedia.net/data/flags/w20/ae.png"
    },
    "phone_code": "+971"
  },
  "united_kingdom": {
    "id": "Royaume-Uni",
    "name": "Royaume-Uni",
    "nationality": {
      "male": "Britanique",
      "female": "Britanique"
    },
    "currency": "GBP",
    "flag": {
      "emoji": "ðŸ‡«ðŸ‡·",
      "url": "https://flagpedia.net/data/flags/w20/gb.png"
    },
    "phone_code": "+44"
  },
  "united_states": {
    "id": "Ã‰tats-Unis",
    "name": "Ã‰tats-Unis",
    "nationality": {
      "male": "AmÃ©ricain",
      "female": "AmÃ©ricain"
    },
    "currency": "USD",
    "flag": {
      "emoji": "ðŸ‡ºðŸ‡¸",
      "url": "https://flagpedia.net/data/flags/w20/us.png"
    },
    "phone_code": "+1"
  },
  "uruguay": {
    "id": "Uruguay",
    "name": "Uruguay",
    "nationality": {
      "male": "uruguayen",
      "female": "Uruguay"
    },
    "currency": "UYU",
    "flag": {
      "emoji": "ðŸ‡ºðŸ‡¾",
      "url": "https://flagpedia.net/data/flags/w20/uy.png"
    },
    "phone_code": "+598"
  },
  "uzbekistan": {
    "id": "OuzbÃ©kistan",
    "name": "OuzbÃ©kistan",
    "nationality": {
      "male": "Ouzbek",
      "female": "Ouzbek"
    },
    "currency": "UZS",
    "flag": {
      "emoji": "ðŸ‡ºðŸ‡¿",
      "url": "https://flagpedia.net/data/flags/w20/uz.png"
    },
    "phone_code": "+998"
  },
  "vanuatu": {
    "id": "Vanuatu",
    "name": "Vanuatu",
    "nationality": {
      "male": "Vanuatuan",
      "female": "Vanuatuan"
    },
    "currency": "VUV",
    "flag": {
      "emoji": "ðŸ‡»ðŸ‡º",
      "url": "https://flagpedia.net/data/flags/w20/vu.png"
    },
    "phone_code": "+678"
  },
  "vatican_city": {
    "id": "CitÃ© du Vatican",
    "name": "CitÃ© du Vatican",
    "nationality": {
      "male": "Vatican",
      "female": "Vatican"
    },
    "currency": "EUR",
    "flag": {
      "emoji": "ðŸ‡»ðŸ‡¦",
      "url": "https://flagpedia.net/data/flags/w20/va.png"
    },
    "phone_code": "+379"
  },
  "venezuela": {
    "id": "Venezuela",
    "name": "Venezuela",
    "nationality": {
      "male": "vÃ©nÃ©zuÃ©lien",
      "female": "vÃ©nÃ©zuÃ©lien"
    },
    "currency": "VES",
    "flag": {
      "emoji": "ðŸ‡»ðŸ‡ª",
      "url": "https://flagpedia.net/data/flags/w20/ve.png"
    },
    "phone_code": "+58"
  },
  "vietnam": {
    "id": "ViÃªt Nam",
    "name": "ViÃªt Nam",
    "nationality": {
      "male": "vietnamien",
      "female": "vietnamien"
    },
    "currency": "VND",
    "flag": {
      "emoji": "ðŸ‡»ðŸ‡³",
      "url": "https://flagpedia.net/data/flags/w20/vn.png"
    },
    "phone_code": "+84"
  },
  "yemen": {
    "id": "YÃ©men",
    "name": "YÃ©men",
    "nationality": {
      "male": "YÃ©mÃ©nite",
      "female": "YÃ©mÃ©nite"
    },
    "currency": "OUI",
    "flag": {
      "emoji": "ðŸ‡¾ðŸ‡ª",
      "url": "https://flagpedia.net/data/flags/w20/ye.png"
    },
    "phone_code": "+967"
  },
  "zambia": {
    "id": "Zambie",
    "name": "Zambie",
    "nationality": {
      "male": "zambien",
      "female": "zambien"
    },
    "currency": "ZMW",
    "flag": {
      "emoji": "ðŸ‡¿ðŸ‡²",
      "url": "https://flagpedia.net/data/flags/w20/zm.png"
    },
    "phone_code": "+260"
  },
  "zimbabwe": {
    "id": "Zimbabwe",
    "name": "Zimbabwe",
    "nationality": {
      "male": "zimbabwÃ©en",
      "female": "zimbabwÃ©en"
    },
    "currency": "ZWL",
    "flag": {
      "emoji": "ðŸ‡¿ðŸ‡¼",
      "url": "https://flagpedia.net/data/flags/w20/zw.png"
    },
    "phone_code": "+263"
  }
}